[{"OBJECT_NAME":"STARLINK-34249","OBJECT_ID":"2025-190AB","EPOCH":"2026-03-09T13:36:09.086976","MEAN_MOTION":15.30179971,"ECCENTRICITY":0.000119,"INCLINATION":53.1586,"RA_OF_ASC_NODE":168.9374,"ARG_OF_PERICENTER":81.3379,"MEAN_ANOMALY":278.7756,"EPHEMERIS_TYPE":0,"CLASSIFICATION_TYPE":"U","NORAD_CAT_ID":65376,"ELEMENT_SET_NO":999,"REV_AT_EPOCH":3015,"BSTAR":0.00076372,"MEAN_MOTION_DOT":0.00022314,"MEAN_MOTION_DDOT":0},{"OBJECT_NAME":"COSMOS 1328","OBJECT_ID":"1981-117A","EPOCH":"2026-03-09T17:51:53.113536","MEAN_MOTION":15.33902077,"ECCENTRICITY":0.00108717,"INCLINATION":82.4939,"RA_OF_ASC_NODE":350.453,"ARG_OF_PERICENTER":167.9725,"MEAN_ANOMALY":192.1779,"EPHEMERIS_TYPE":0,"CLASSIFICATION_TYPE":"U","NORAD_CAT_ID":12987,"ELEMENT_SET_NO":999,"REV_AT_EPOCH":41406,"BSTAR":0.00040501644,"MEAN_MOTION_DOT":0.00013342,"MEAN_MOTION_DDOT":0}]
